IRIDIUM 36              
1 24967U 97056C   24358.17087328  .00000830  00000+0  27179-3 0  9992
2 24967  86.3967 246.8928 0001895  86.3595 273.7819 14.37305515426932
IRIDIUM 39              
1 25042U 97069D   24358.17238998  .00001492  00000+0  38962-3 0  9999
2 25042  86.3909 286.6035 0018099 167.3653 192.8008 14.48742996423739
IRIDIUM 38              
1 25043U 97069E   24357.90741553  .00001126  00000+0  36749-3 0  9991
2 25043  86.3954 307.3428 0001857  32.3197 327.8114 14.37796541420621
IRIDIUM 42              
1 25077U 97077A   24357.97722161  .00001080  00000+0  36491-3 0  9991
2 25077  86.3959 313.2672 0002119  67.5149 292.6272 14.36056580415909
IRIDIUM 44              
1 25078U 97077B   24357.85018445  .00000965  00000+0  30085-3 0  9996
2 25078  86.3952 295.7053 0000713 131.8646 228.2614 14.39924835418329
IRIDIUM 45              
1 25104U 97082A   24357.86771622  .00028601  00000+0  12822-2 0  9991
2 25104  86.3628 132.9373 0135334 268.2637  90.3098 15.13141956425295
IRIDIUM 24              
1 25105U 97082B   24357.97924172  .00001158  00000+0  34897-3 0  9999
2 25105  86.3928 154.9983 0009754 306.4507  53.5793 14.41748966418072
IRIDIUM 51              
1 25262U 98018A   24357.92475654  .00048900  00000+0  16315-2 0  9994
2 25262  86.3912 142.0851 0114465 200.5112 159.1521 15.24690309420257
